ONEWEB-0130             
1 47276U 20100U   26201.88669783 -.00000467  00000+0 -13348-2 0  9994
2 47276  87.8980 343.9539 0001954  98.7884 261.3466 13.12443323269064
ONEWEB-0131             
1 47277U 20100V   26201.88331296 -.00000463  00000+0 -13234-2 0  9990
2 47277  87.8967 343.9690 0001894 102.6912 257.4429 13.12442783269107
ONEWEB-0132             
1 47278U 20100W   26201.91211416  .00000290  00000+0  77188-3 0  9991
2 47278  87.8969 343.9663 0001857  99.5084 260.6255 13.12443370269008
ONEWEB-0133             
1 47279U 20100X   26201.92890785  .00000466  00000+0  12607-2 0  9994
2 47279  87.8985 343.9425 0001805  99.9137 260.2196 13.12443289269165
ONEWEB-0134             
1 47280U 20100Y   26201.89855820 -.00000194  00000+0 -57342-3 0  9999
2 47280  87.8981 343.9460 0002099 101.4792 258.6572 13.12443462269133
ONEWEB-0135             
1 47281U 20100Z   26201.86975137 -.00000077  00000+0 -25069-3 0  9992
2 47281  87.8968 343.9698 0002038 104.0535 256.0820 13.12442409269159
ONEWEB-0136             
1 47282U 20100AA  26201.88838758 -.00000363  00000+0 -10433-2 0  9998
2 47282  87.8977 343.9505 0002152 101.7336 258.4034 13.12443154269080
ONEWEB-0137             
1 47283U 20100AB  26201.92227467  .00000444  00000+0  11987-2 0  9996
2 47283  87.8986 343.9550 0001790  94.6529 265.4804 13.12443464268998
ONEWEB-0138             
1 47284U 20100AC  26201.90025357 -.00000129  00000+0 -39325-3 0  9998
2 47284  87.8976 343.9641 0002074  98.8432 261.2931 13.12443945269073
ONEWEB-0139             
1 47285U 20100AD  26201.86482322  .00000014  00000+0  29826-5 0  9991
2 47285  87.8978 343.9566 0001910  95.6641 264.4705 13.12441409269142
ONEWEB-0140             
1 47286U 20100AE  26201.89516784 -.00000280  00000+0 -81279-3 0  9990
2 47286  87.8980 343.9425 0001802 102.5353 257.5978 13.12443563269113
ONEWEB-0141             
1 47287U 20100AF  26201.86453006  .00000216  00000+0  56600-3 0  9992
2 47287  87.8979 343.9533 0001760  87.8286 272.3044 13.12441803269096
ONEWEB-0142             
1 47288U 20100AG  26201.92918915  .00000386  00000+0  10368-2 0  9993
2 47288  87.8973 343.9599 0002102  87.6793 272.4576 13.12443826269093
ONEWEB-0143             
1 47289U 20100AH  26201.86297885  .00000137  00000+0  34640-3 0  9997
2 47289  87.8974 343.9727 0001828  95.4413 264.6924 13.12442153269067
ONEWEB-0144             
1 47290U 20100AJ  26201.91042360  .00000217  00000+0  56857-3 0  9994
2 47290  87.8983 343.9398 0002231  95.8718 264.2665 13.12443217268995
ONEWEB-0145             
1 47291U 20100AK  26201.88161152 -.00000431  00000+0 -12331-2 0  9990
2 47291  87.8971 343.9693 0001943  95.9936 264.1414 13.12442753269180
ONEWEB-0146             
1 47292U 20100AL  26201.87822453 -.00000361  00000+0 -10392-2 0  9995
2 47292  87.8979 343.9641 0001593 104.7941 255.3364 13.12442460269099
ONEWEB-0147             
1 47293U 20100AM  26201.92058494  .00000370  00000+0  99180-3 0  9999
2 47293  87.8979 343.9382 0001927 101.7252 258.4093 13.12443302268992
ONEWEB-0115             
1 48042U 21025A   26201.84624395  .00000989  00000+0  26729-2 0  9993
2 48042  87.8983 313.5266 0001870 103.0558 257.0780 13.13467572258011
ONEWEB-0152             
1 48043U 21025B   26201.85973843 -.00000105  00000+0 -32350-3 0  9990
2 48043  87.8993 313.5226 0001894 103.2392 256.8948 13.13472775257971
ONEWEB-0153             
1 48044U 21025C   26201.83774942  .00000317  00000+0  83392-3 0  9993
2 48044  87.8980 313.5271 0002013  98.8025 261.3332 13.13469870257963
ONEWEB-0154             
1 48045U 21025D   26201.83436351  .00000282  00000+0  73624-3 0  9991
2 48045  87.8987 313.5276 0002024 105.5173 254.6180 13.13470188257924
ONEWEB-0116             
1 48046U 21025E   26201.87329207 -.00000309  00000+0 -88214-3 0  9990
2 48046  87.8989 313.5171 0001851 103.6786 256.4549 13.13469772258070
ONEWEB-0150             
1 48047U 21025F   26201.84960311  .00000236  00000+0  61020-3 0  9998
2 48047  87.8991 313.5190 0001842  94.5105 265.6235 13.13469394257969
ONEWEB-0107             
1 48048U 21025G   26201.85128543  .00000189  00000+0  48220-3 0  9997
2 48048  87.8991 313.5145 0002074  95.7005 264.4360 13.13471832257944
ONEWEB-0101             
1 48049U 21025H   26201.81404171 -.00000203  00000+0 -58983-3 0  9994
2 48049  87.8977 313.5344 0002105 101.8141 258.3225 13.13471750257913
ONEWEB-0113             
1 48050U 21025J   26201.82760677  .00000148  00000+0  36825-3 0  9990
2 48050  87.8982 313.4387 0001861  96.3401 263.7941 13.13891066258026
ONEWEB-0112             
1 48051U 21025K   26201.85637280  .00000008  00000+0 -12982-4 0  9992
2 48051  87.8990 313.5120 0002215 100.6174 259.5204 13.13468917258011
ONEWEB-0156             
1 48052U 21025L   26201.86481811 -.00000415  00000+0 -11713-2 0  9993
2 48052  87.8989 313.5200 0001959  96.2014 263.9338 13.13468979257997
ONEWEB-0161             
1 48053U 21025M   26201.83943384  .00000377  00000+0  99641-3 0  9991
2 48053  87.8988 313.5260 0002051  94.8362 265.3001 13.13473248257928
